STARLINK-2466           
1 48125U 21027AK  26068.53027107  .00010076  00000+0  35181-3 0  9993
2 48125  53.1608 166.0309 0001437  88.3719 271.7447 15.30205487272481
TEVEL2-4                
1 63213U 25052D   26068.69417973  .00020990  00000+0  70363-3 0  9998
2 63213  97.4009 325.1237 0004733  95.3468 264.8313 15.30925813 54879
